{
"type": "FeatureCollection",
"name": "nsw_final",
"crs": { "type": "name", "properties": { "name": "urn:ogc:def:crs:OGC:1.3:CRS84" } },
"features": [
{ "type": "Feature", "properties": { "clear_id": 1, "aoi": "cobar_town", "area_ha": 24.932, "n_pixels": 37, "interval": 22, "date_from": "2023-09-25", "date_to": "2023-10-07", "vh_pre": -19.36, "vh_post": -22.26, "vh_drop": -2.9, "vv_pre": -14.3, "vv_post": -15.72, "vv_drop": -1.42, "persist": 1.0, "rain_flag": "ok", "aoi_dlevel": -0.25, "n_changes": 2, "compact": 0.159, "lc_class": 10, "lc_name": "tree cover", "woody_frac": 1.0, "lon": 145.79213, "lat": -31.54306, "orbit": 16, "n_scenes": 30, "multilook": 8, "enl": 11.35, "alpha": 0.01, "vh_poly": -2.9, "vh_bkg": 0.01, "vh_contr": -2.91, "vh_core": -3.52, "vh_frac": 0.946, "ndvi_poly": -0.106, "ndvi_bkg": -0.0191, "ndvi_contr": -0.087, "ndvi_pre": 0.2045, "pre_contr": 0.0328, "s2_n_pre": 4, "s2_n_post": 4, "verdict": "confirmed" }, "geometry": { "type": "Polygon", "coordinates": [ [ [ 145.7916, -31.54 ], [ 145.7916, -31.5408 ], [ 145.7924, -31.5408 ], [ 145.7924, -31.5416 ], [ 145.7916, -31.5416 ], [ 145.7916, -31.5424 ], [ 145.7908, -31.5424 ], [ 145.7908, -31.5408 ], [ 145.79, -31.5408 ], [ 145.79, -31.5416 ], [ 145.7892, -31.5416 ], [ 145.7892, -31.5424 ], [ 145.7876, -31.5424 ], [ 145.7876, -31.5432 ], [ 145.7884, -31.5432 ], [ 145.7884, -31.544 ], [ 145.7908, -31.544 ], [ 145.7908, -31.5448 ], [ 145.7916, -31.5448 ], [ 145.7916, -31.5456 ], [ 145.7932, -31.5456 ], [ 145.7932, -31.5464 ], [ 145.7948, -31.5464 ], [ 145.7948, -31.5448 ], [ 145.794, -31.5448 ], [ 145.794, -31.544 ], [ 145.7948, -31.544 ], [ 145.7948, -31.5408 ], [ 145.794, -31.5408 ], [ 145.794, -31.54 ], [ 145.7916, -31.54 ] ], [ [ 145.7932, -31.5408 ], [ 145.794, -31.5408 ], [ 145.794, -31.5416 ], [ 145.7932, -31.5416 ], [ 145.7932, -31.5408 ] ], [ [ 145.79, -31.5424 ], [ 145.7908, -31.5424 ], [ 145.7908, -31.5432 ], [ 145.79, -31.5432 ], [ 145.79, -31.5424 ] ], [ [ 145.7932, -31.5448 ], [ 145.794, -31.5448 ], [ 145.794, -31.5456 ], [ 145.7932, -31.5456 ], [ 145.7932, -31.5448 ] ] ] } },
{ "type": "Feature", "properties": { "clear_id": 2, "aoi": "cobar_e", "area_ha": 4.052, "n_pixels": 6, "interval": 16, "date_from": "2023-07-15", "date_to": "2023-07-27", "vh_pre": -16.56, "vh_post": -20.04, "vh_drop": -3.48, "vv_pre": -10.01, "vv_post": -12.92, "vv_drop": -2.9, "persist": 1.0, "rain_flag": "check", "aoi_dlevel": -1.66, "n_changes": 2, "compact": 0.551, "lc_class": 10, "lc_name": "tree cover", "woody_frac": 1.0, "lon": 146.2432, "lat": -31.34, "orbit": 16, "n_scenes": 29, "multilook": 8, "enl": 11.35, "alpha": 0.01, "vh_poly": -3.48, "vh_bkg": -1.71, "vh_contr": -1.77, "vh_core": -2.21, "vh_frac": 0.667, "ndvi_poly": -0.034, "ndvi_bkg": -0.0323, "ndvi_contr": -0.0017, "ndvi_pre": 0.1622, "pre_contr": -0.0908, "s2_n_pre": 4, "s2_n_post": 2, "verdict": "no_baseline" }, "geometry": { "type": "Polygon", "coordinates": [ [ [ 146.2416, -31.3392 ], [ 146.2416, -31.34 ], [ 146.2424, -31.34 ], [ 146.2424, -31.3408 ], [ 146.2448, -31.3408 ], [ 146.2448, -31.34 ], [ 146.244, -31.34 ], [ 146.244, -31.3392 ], [ 146.2416, -31.3392 ] ] ] } },
{ "type": "Feature", "properties": { "clear_id": 3, "aoi": "cobar_town", "area_ha": 4.044, "n_pixels": 6, "interval": 17, "date_from": "2023-07-15", "date_to": "2023-07-27", "vh_pre": -18.31, "vh_post": -20.71, "vh_drop": -2.4, "vv_pre": -13.04, "vv_post": -15.5, "vv_drop": -2.46, "persist": 1.0, "rain_flag": "ok", "aoi_dlevel": -0.64, "n_changes": 2, "compact": 0.551, "lc_class": 10, "lc_name": "tree cover", "woody_frac": 1.0, "lon": 145.83187, "lat": -31.52493, "orbit": 16, "n_scenes": 30, "multilook": 8, "enl": 11.35, "alpha": 0.01, "vh_poly": -2.4, "vh_bkg": -1.24, "vh_contr": -1.16, "vh_core": -1.31, "vh_frac": 0.0, "ndvi_poly": 0.0287, "ndvi_bkg": -0.008, "ndvi_contr": 0.0368, "ndvi_pre": 0.225, "pre_contr": 0.0025, "s2_n_pre": 3, "s2_n_post": 3, "verdict": "rejected" }, "geometry": { "type": "Polygon", "coordinates": [ [ [ 145.8316, -31.524 ], [ 145.8316, -31.5248 ], [ 145.83, -31.5248 ], [ 145.83, -31.5256 ], [ 145.8332, -31.5256 ], [ 145.8332, -31.524 ], [ 145.8316, -31.524 ] ] ] } },
{ "type": "Feature", "properties": { "clear_id": 4, "aoi": "cobar_town", "area_ha": 3.37, "n_pixels": 5, "interval": 16, "date_from": "2023-07-03", "date_to": "2023-07-15", "vh_pre": -19.1, "vh_post": -20.11, "vh_drop": -1.01, "vv_pre": -13.69, "vv_post": -14.72, "vv_drop": -1.03, "persist": 0.929, "rain_flag": "check", "aoi_dlevel": -2.37, "n_changes": 2, "compact": 0.646, "lc_class": 10, "lc_name": "tree cover", "woody_frac": 1.0, "lon": 145.82944, "lat": -31.52328, "orbit": 16, "n_scenes": 30, "multilook": 8, "enl": 11.35, "alpha": 0.01, "vh_poly": -1.01, "vh_bkg": -0.62, "vh_contr": -0.39, "vh_core": -0.56, "vh_frac": 0.0, "ndvi_poly": 0.0331, "ndvi_bkg": 0.0005, "ndvi_contr": 0.0326, "ndvi_pre": 0.211, "pre_contr": -0.0125, "s2_n_pre": 2, "s2_n_post": 4, "verdict": "rejected" }, "geometry": { "type": "Polygon", "coordinates": [ [ [ 145.8284, -31.5224 ], [ 145.8284, -31.524 ], [ 145.8308, -31.524 ], [ 145.8308, -31.5232 ], [ 145.83, -31.5232 ], [ 145.83, -31.5224 ], [ 145.8284, -31.5224 ] ] ] } },
{ "type": "Feature", "properties": { "clear_id": 5, "aoi": "cobar_town", "area_ha": 2.697, "n_pixels": 4, "interval": 16, "date_from": "2023-07-03", "date_to": "2023-07-15", "vh_pre": -18.6, "vh_post": -19.65, "vh_drop": -1.05, "vv_pre": -13.76, "vv_post": -15.26, "vv_drop": -1.5, "persist": 0.929, "rain_flag": "check", "aoi_dlevel": -2.37, "n_changes": 2, "compact": 0.482, "lc_class": 10, "lc_name": "tree cover", "woody_frac": 1.0, "lon": 145.8814, "lat": -31.4764, "orbit": 16, "n_scenes": 30, "multilook": 8, "enl": 11.35, "alpha": 0.01, "vh_poly": -1.05, "vh_bkg": -0.74, "vh_contr": -0.31, "vh_core": -0.52, "vh_frac": 0.0, "ndvi_poly": 0.0279, "ndvi_bkg": 0.0056, "ndvi_contr": 0.0223, "ndvi_pre": 0.2154, "pre_contr": -0.0189, "s2_n_pre": 2, "s2_n_post": 4, "verdict": "rejected" }, "geometry": { "type": "Polygon", "coordinates": [ [ [ 145.8812, -31.4752 ], [ 145.8812, -31.476 ], [ 145.8804, -31.476 ], [ 145.8804, -31.4768 ], [ 145.8812, -31.4768 ], [ 145.8812, -31.4776 ], [ 145.882, -31.4776 ], [ 145.882, -31.4752 ], [ 145.8812, -31.4752 ] ] ] } }
]
}
